{
  "type": "FeatureCollection",
  "features": [
    {
      "type": "Feature",
      "properties": {
        "norad_id": 30416,
        "name": "FENGYUN 1C DEB",
        "group": "fengyun-1c-debris",
        "lat": 18.381769697753057,
        "lon": 8.589162636062742,
        "alt_km": 924.601102214644,
        "timestamp": "2025-12-13T03:42:11.549171+00:00",
        "meta_object_name": "FENGYUN 1C DEB",
        "meta_object_id": "1999-025AEF",
        "meta_epoch": "2025-12-12T00:13:16.752288",
        "meta_mean_motion": 14.02628507,
        "meta_eccentricity": 0.0055471,
        "meta_inclination": 98.835,
        "meta_ra_of_asc_node": 10.4411,
        "meta_arg_of_pericenter": 191.8888,
        "meta_mean_anomaly": 168.0972,
        "meta_ephemeris_type": 0,
        "meta_classification_type": "U",
        "meta_norad_cat_id": 30416,
        "meta_element_set_no": 999,
        "meta_rev_at_epoch": 96614,
        "meta_bstar": 0.00051992,
        "meta_mean_motion_dot": 7.7e-06,
        "meta_mean_motion_ddot": 0,
        "tle_line1": "1 30416U 99025AEF 25346.00922167  .00000770  00000+0  51992-3 0  9998",
        "tle_line2": "2 30416  98.8350  10.4411 0055471 191.8888 168.0972 14.02628507966149"
      },
      "geometry": {
        "type": "Point",
        "coordinates": [
          8.589162636062742,
          18.381769697753057
        ]
      }
    },
    {
      "type": "Feature",
      "properties": {
        "norad_id": 30417,
        "name": "FENGYUN 1C DEB",
        "group": "fengyun-1c-debris",
        "lat": -72.39530476884217,
        "lon": 128.30009300143973,
        "alt_km": 883.9457167652772,
        "timestamp": "2025-12-13T03:42:11.549181+00:00",
        "meta_object_name": "FENGYUN 1C DEB",
        "meta_object_id": "1999-025AEG",
        "meta_epoch": "2025-12-12T06:12:43.865856",
        "meta_mean_motion": 14.14662065,
        "meta_eccentricity": 0.0064425,
        "meta_inclination": 98.6931,
        "meta_ra_of_asc_node": 336.2551,
        "meta_arg_of_pericenter": 121.3607,
        "meta_mean_anomaly": 254.8993,
        "meta_ephemeris_type": 0,
        "meta_classification_type": "U",
        "meta_norad_cat_id": 30417,
        "meta_element_set_no": 999,
        "meta_rev_at_epoch": 97382,
        "meta_bstar": 0.00039422191,
        "meta_mean_motion_dot": 7.31e-06,
        "meta_mean_motion_ddot": 0,
        "tle_line1": "1 30417U 99025AEG 25346.25884104  .00000731  00000+0  39422-3 0  9995",
        "tle_line2": "2 30417  98.6931 336.2551 0064425 121.3607 254.8993 14.14662065973823"
      },
      "geometry": {
        "type": "Point",
        "coordinates": [
          128.30009300143973,
          -72.39530476884217
        ]
      }
    },
    {
      "type": "Feature",
      "properties": {
        "norad_id": 30418,
        "name": "FENGYUN 1C DEB",
        "group": "fengyun-1c-debris",
        "lat": 42.06729566060322,
        "lon": -24.942440886536367,
        "alt_km": 540.8515388186197,
        "timestamp": "2025-12-13T03:42:11.549191+00:00",
        "meta_object_name": "FENGYUN 1C DEB",
        "meta_object_id": "1999-025AEH",
        "meta_epoch": "2025-12-12T00:07:22.455264",
        "meta_mean_motion": 14.84184085,
        "meta_eccentricity": 0.0111236,
        "meta_inclination": 98.8409,
        "meta_ra_of_asc_node": 145.7096,
        "meta_arg_of_pericenter": 117.9516,
        "meta_mean_anomaly": 2.2376,
        "meta_ephemeris_type": 0,
        "meta_classification_type": "U",
        "meta_norad_cat_id": 30418,
        "meta_element_set_no": 999,
        "meta_rev_at_epoch": 581,
        "meta_bstar": 0.001379,
        "meta_mean_motion_dot": 0.00012824,
        "meta_mean_motion_ddot": 0,
        "tle_line1": "1 30418U 99025AEH 25346.00512101  .00012824  00000+0  13790-2 0  9999",
        "tle_line2": "2 30418  98.8409 145.7096 0111236 117.9516   2.2376 14.84184085  5819"
      },
      "geometry": {
        "type": "Point",
        "coordinates": [
          -24.942440886536367,
          42.06729566060322
        ]
      }
    },
    {
      "type": "Feature",
      "properties": {
        "norad_id": 30419,
        "name": "FENGYUN 1C DEB",
        "group": "fengyun-1c-debris",
        "lat": 37.02779708444986,
        "lon": 121.01327080155234,
        "alt_km": 847.4275810633417,
        "timestamp": "2025-12-13T03:42:11.549201+00:00",
        "meta_object_name": "FENGYUN 1C DEB",
        "meta_object_id": "1999-025AEJ",
        "meta_epoch": "2025-12-11T19:00:04.965696",
        "meta_mean_motion": 14.18033991,
        "meta_eccentricity": 0.00530633,
        "meta_inclination": 99.2403,
        "meta_ra_of_asc_node": 292.5425,
        "meta_arg_of_pericenter": 27.5631,
        "meta_mean_anomaly": 2.2018,
        "meta_ephemeris_type": 0,
        "meta_classification_type": "U",
        "meta_norad_cat_id": 30419,
        "meta_element_set_no": 999,
        "meta_rev_at_epoch": 97335,
        "meta_bstar": 0.0013049037,
        "meta_mean_motion_dot": 2.664e-05,
        "meta_mean_motion_ddot": 0,
        "tle_line1": "1 30419U 99025AEJ 25345.79172414  .00002664  00000+0  13049-2 0  9992",
        "tle_line2": "2 30419  99.2403 292.5425 0053063  27.5631   2.2018 14.18033991973355"
      },
      "geometry": {
        "type": "Point",
        "coordinates": [
          121.01327080155234,
          37.02779708444986
        ]
      }
    },
    {
      "type": "Feature",
      "properties": {
        "norad_id": 30432,
        "name": "FENGYUN 1C DEB",
        "group": "fengyun-1c-debris",
        "lat": 11.911453329798128,
        "lon": 67.91863585749851,
        "alt_km": 815.8241408584609,
        "timestamp": "2025-12-13T03:42:11.549211+00:00",
        "meta_object_name": "FENGYUN 1C DEB",
        "meta_object_id": "1999-025AET",
        "meta_epoch": "2025-12-12T03:35:19.633056",
        "meta_mean_motion": 14.40676166,
        "meta_eccentricity": 0.00830384,
        "meta_inclination": 98.8348,
        "meta_ra_of_asc_node": 245.0012,
        "meta_arg_of_pericenter": 340.7369,
        "meta_mean_anomaly": 19.0684,
        "meta_ephemeris_type": 0,
        "meta_classification_type": "U",
        "meta_norad_cat_id": 30432,
        "meta_element_set_no": 999,
        "meta_rev_at_epoch": 98726,
        "meta_bstar": 0.0011828793,
        "meta_mean_motion_dot": 3.887e-05,
        "meta_mean_motion_ddot": 0,
        "tle_line1": "1 30432U 99025AET 25346.14953279  .00003887  00000+0  11829-2 0  9995",
        "tle_line2": "2 30432  98.8348 245.0012 0083038 340.7369  19.0684 14.40676166987263"
      },
      "geometry": {
        "type": "Point",
        "coordinates": [
          67.91863585749851,
          11.911453329798128
        ]
      }
    },
    {
      "type": "Feature",
      "properties": {
        "norad_id": 30434,
        "name": "FENGYUN 1C DEB",
        "group": "fengyun-1c-debris",
        "lat": -63.55999115708853,
        "lon": 135.37598445451113,
        "alt_km": 848.1415064067205,
        "timestamp": "2025-12-13T03:42:11.549221+00:00",
        "meta_object_name": "FENGYUN 1C DEB",
        "meta_object_id": "1999-025AEV",
        "meta_epoch": "2025-12-10T11:22:16.932576",
        "meta_mean_motion": 13.90647911,
        "meta_eccentricity": 0.01207823,
        "meta_inclination": 98.9988,
        "meta_ra_of_asc_node": 331.362,
        "meta_arg_of_pericenter": 237.4216,
        "meta_mean_anomaly": 275.0449,
        "meta_ephemeris_type": 0,
        "meta_classification_type": "U",
        "meta_norad_cat_id": 30434,
        "meta_element_set_no": 999,
        "meta_rev_at_epoch": 95675,
        "meta_bstar": 0.00047001157,
        "meta_mean_motion_dot": 5.78e-06,
        "meta_mean_motion_ddot": 0,
        "tle_line1": "1 30434U 99025AEV 25344.47380709  .00000578  00000+0  47001-3 0  9999",
        "tle_line2": "2 30434  98.9988 331.3620 0120782 237.4216 275.0449 13.90647911956754"
      },
      "geometry": {
        "type": "Point",
        "coordinates": [
          135.37598445451113,
          -63.55999115708853
        ]
      }
    },
    {
      "type": "Feature",
      "properties": {
        "norad_id": 30435,
        "name": "FENGYUN 1C DEB",
        "group": "fengyun-1c-debris",
        "lat": -76.434161228999,
        "lon": 112.25001192630678,
        "alt_km": 1102.25475730803,
        "timestamp": "2025-12-13T03:42:11.549231+00:00",
        "meta_object_name": "FENGYUN 1C DEB",
        "meta_object_id": "1999-025AEW",
        "meta_epoch": "2025-12-11T22:44:38.739840",
        "meta_mean_motion": 13.79615408,
        "meta_eccentricity": 0.0207573,
        "meta_inclination": 99.0173,
        "meta_ra_of_asc_node": 332.2537,
        "meta_arg_of_pericenter": 114.0907,
        "meta_mean_anomaly": 274.8129,
        "meta_ephemeris_type": 0,
        "meta_classification_type": "U",
        "meta_norad_cat_id": 30435,
        "meta_element_set_no": 999,
        "meta_rev_at_epoch": 94149,
        "meta_bstar": 0.0022039,
        "meta_mean_motion_dot": 2.633e-05,
        "meta_mean_motion_ddot": 0,
        "tle_line1": "1 30435U 99025AEW 25345.94767060  .00002633  00000+0  22039-2 0  9999",
        "tle_line2": "2 30435  99.0173 332.2537 0207573 114.0907 274.8129 13.79615408941491"
      },
      "geometry": {
        "type": "Point",
        "coordinates": [
          112.25001192630678,
          -76.434161228999
        ]
      }
    }
  ]
}